STARLINK-32352          
1 61847U 24202C   26068.46326900 -.00005288  00000+0 -18270-3 0  9993
2 61847  42.9951 227.9627 0000746 262.7330  97.3437 15.27594260 75436
HAWK-11B                
1 62379U 24247C   26068.44730104  .00009093  00000+0  32842-3 0  9993
2 62379  45.0161 115.7610 0004690 333.0326  27.0314 15.28847070 67738
